STARLINK-34139          
1 63975U 25099Z   26068.28942154  .00038926  00000+0  14155-2 0  9997
2 63975  43.0025 175.1380 0003131 286.4319  73.6189 15.27602669 47225
2025-155V               
1 64895U 25155V   26068.85787115  .00013705  00000+0  51002-3 0  9990
2 64895  97.4485  37.2490 0008035 152.8264 207.3397 15.27583301 65579
